GOES 7                  
1 17561U 87022A   24110.69252463  .00000045  00000+0  00000+0 0  9991
2 17561  13.6474 343.2899 0004168  69.7538 109.0903  0.99889676119085
